T1
G0 X36.9390 Y-43.4109 Z1.0000 F1000
G0 X36.9390 Y-43.4109 Z0.0000
G3 X37.0865 Y-44.2595 Z-0.0900 I0.3240 J-0.3808
G1 X42.3235 Y-46.2357 Z-0.5753
G3 X43.0000 Y-45.7679 Z-0.6591 I0.1765 J0.4678
G1 X43.0000 Y-38.7298 Z-1.2694
G3 X42.1304 Y-38.3931 Z-1.3735 I-0.5000 J0.0000
G2 X36.9390 Y-43.4109 Z-2.0000 I-42.1304 J38.3931
G3 X37.0865 Y-44.2595 Z-2.0900 I0.3240 J-0.3808
G1 X42.3235 Y-46.2357 Z-2.5753
G3 X43.0000 Y-45.7679 Z-2.6591 I0.1765 J0.4678
G1 X43.0000 Y-38.7298 Z-3.2694
G3 X42.1304 Y-38.3931 Z-3.3735 I-0.5000 J0.0000
G2 X36.9390 Y-43.4109 Z-4.0000 I-42.1304 J38.3931
G3 X37.0865 Y-44.2595 Z-4.0900 I0.3240 J-0.3808
G1 X42.3235 Y-46.2357 Z-4.5753
G3 X43.0000 Y-45.7679 Z-4.6591 I0.1765 J0.4678
G1 X43.0000 Y-38.7298 Z-5.2694
G3 X42.1304 Y-38.3931 Z-5.3735 I-0.5000 J0.0000
G2 X36.9390 Y-43.4109 Z-6.0000 I-42.1304 J38.3931
G3 X37.0865 Y-44.2595 Z-6.0900 I0.3240 J-0.3808
G1 X42.3235 Y-46.2357 Z-6.5753
G3 X43.0000 Y-45.7679 Z-6.6591 I0.1765 J0.4678
G1 X43.0000 Y-38.7298 Z-7.2694
G3 X42.1304 Y-38.3931 Z-7.3735 I-0.5000 J0.0000
G2 X36.9390 Y-43.4109 Z-8.0000 I-42.1304 J38.3931
G3 X37.0865 Y-44.2595 Z-8.0900 I0.3240 J-0.3808
G1 X42.3235 Y-46.2357 Z-8.5753
G3 X43.0000 Y-45.7679 Z-8.6591 I0.1765 J0.4678
G1 X43.0000 Y-38.7298 Z-9.2694
G3 X42.1304 Y-38.3931 Z-9.3735 I-0.5000 J0.0000
G2 X36.9390 Y-43.4109 Z-10.0000 I-42.1304 J38.3931
G3 X37.0865 Y-44.2595 Z-10.0000 I0.3240 J-0.3808
G1 X42.3235 Y-46.2357 Z-10.0000
G3 X43.0000 Y-45.7679 Z-10.0000 I0.1765 J0.4678
G1 X43.0000 Y-38.7298 Z-10.0000
G3 X42.1304 Y-38.3931 Z-10.0000 I-0.5000 J0.0000
G2 X36.9390 Y-43.4109 Z-10.0000 I-42.1304 J38.3931
G0 X36.9390 Y-43.4109 Z1.0000
G0 X30.8911 Y-44.2915 Z1.0000
G0 X30.8911 Y-44.2915 Z0.0000
G3 X31.0006 Y-45.1694 Z-0.0367 I0.2860 J-0.4101
G1 X45.3235 Y-50.5743 Z-0.5538
G3 X46.0000 Y-50.1065 Z-0.5864 I0.1765 J0.4678
G1 X46.0000 Y-30.0000 Z-1.2657
G3 X45.0826 Y-29.7248 Z-1.3089 I-0.5000 J0.0000
G2 X30.8911 Y-44.2915 Z-2.0000 I-45.0826 J29.7248
G3 X31.0006 Y-45.1694 Z-2.0367 I0.2860 J-0.4101
G1 X45.3235 Y-50.5743 Z-2.5538
G3 X46.0000 Y-50.1065 Z-2.5864 I0.1765 J0.4678
G1 X46.0000 Y-30.0000 Z-3.2657
G3 X45.0826 Y-29.7248 Z-3.3089 I-0.5000 J0.0000
G2 X30.8911 Y-44.2915 Z-4.0000 I-45.0826 J29.7248
G3 X31.0006 Y-45.1694 Z-4.0367 I0.2860 J-0.4101
G1 X45.3235 Y-50.5743 Z-4.5538
G3 X46.0000 Y-50.1065 Z-4.5864 I0.1765 J0.4678
G1 X46.0000 Y-30.0000 Z-5.2657
G3 X45.0826 Y-29.7248 Z-5.3089 I-0.5000 J0.0000
G2 X30.8911 Y-44.2915 Z-6.0000 I-45.0826 J29.7248
G3 X31.0006 Y-45.1694 Z-6.0367 I0.2860 J-0.4101
G1 X45.3235 Y-50.5743 Z-6.5538
G3 X46.0000 Y-50.1065 Z-6.5864 I0.1765 J0.4678
G1 X46.0000 Y-30.0000 Z-7.2657
G3 X45.0826 Y-29.7248 Z-7.3089 I-0.5000 J0.0000
G2 X30.8911 Y-44.2915 Z-8.0000 I-45.0826 J29.7248
G3 X31.0006 Y-45.1694 Z-8.0367 I0.2860 J-0.4101
G1 X45.3235 Y-50.5743 Z-8.5538
G3 X46.0000 Y-50.1065 Z-8.5864 I0.1765 J0.4678
G1 X46.0000 Y-30.0000 Z-9.2657
G3 X45.0826 Y-29.7248 Z-9.3089 I-0.5000 J0.0000
G2 X30.8911 Y-44.2915 Z-10.0000 I-45.0826 J29.7248
G3 X31.0006 Y-45.1694 Z-10.0000 I0.2860 J-0.4101
G1 X45.3235 Y-50.5743 Z-10.0000
G3 X46.0000 Y-50.1065 Z-10.0000 I0.1765 J0.4678
G1 X46.0000 Y-30.0000 Z-10.0000
G3 X45.0826 Y-29.7248 Z-10.0000 I-0.5000 J0.0000
G2 X30.8911 Y-44.2915 Z-10.0000 I-45.0826 J29.7248
G0 X30.8911 Y-44.2915 Z1.0000
G0 X48.0291 Y-17.1523 Z1.0000
G0 X48.0291 Y-17.1523 Z0.0000
G2 X24.1655 Y-44.9113 Z-0.7212 I-48.0291 J17.1523
G3 X24.2259 Y-45.8194 Z-0.7432 I0.2369 J-0.4403
G1 X48.3235 Y-54.9128 Z-1.2393
G3 X49.0000 Y-54.4450 Z-1.2580 I0.1765 J0.4678
G1 X49.0000 Y-17.3205 Z-1.9730
G3 X48.0291 Y-17.1523 Z-2.0000 I-0.5000 J0.0000
G2 X24.1655 Y-44.9113 Z-2.7212 I-48.0291 J17.1523
G3 X24.2259 Y-45.8194 Z-2.7432 I0.2369 J-0.4403
G1 X48.3235 Y-54.9128 Z-3.2393
G3 X49.0000 Y-54.4450 Z-3.2580 I0.1765 J0.4678
G1 X49.0000 Y-17.3205 Z-3.9730
G3 X48.0291 Y-17.1523 Z-4.0000 I-0.5000 J0.0000
G2 X24.1655 Y-44.9113 Z-4.7212 I-48.0291 J17.1523
G3 X24.2259 Y-45.8194 Z-4.7432 I0.2369 J-0.4403
G1 X48.3235 Y-54.9128 Z-5.2393
G3 X49.0000 Y-54.4450 Z-5.2580 I0.1765 J0.4678
G1 X49.0000 Y-17.3205 Z-5.9730
G3 X48.0291 Y-17.1523 Z-6.0000 I-0.5000 J0.0000
G2 X24.1655 Y-44.9113 Z-6.7212 I-48.0291 J17.1523
G3 X24.2259 Y-45.8194 Z-6.7432 I0.2369 J-0.4403
G1 X48.3235 Y-54.9128 Z-7.2393
G3 X49.0000 Y-54.4450 Z-7.2580 I0.1765 J0.4678
G1 X49.0000 Y-17.3205 Z-7.9730
G3 X48.0291 Y-17.1523 Z-8.0000 I-0.5000 J0.0000
G2 X24.1655 Y-44.9113 Z-8.7212 I-48.0291 J17.1523
G3 X24.2259 Y-45.8194 Z-8.7432 I0.2369 J-0.4403
G1 X48.3235 Y-54.9128 Z-9.2393
G3 X49.0000 Y-54.4450 Z-9.2580 I0.1765 J0.4678
G1 X49.0000 Y-17.3205 Z-9.9730
G3 X48.0291 Y-17.1523 Z-10.0000 I-0.5000 J0.0000
G2 X24.1655 Y-44.9113 Z-10.0000 I-48.0291 J17.1523
G3 X24.2259 Y-45.8194 Z-10.0000 I0.2369 J-0.4403
G1 X48.3235 Y-54.9128 Z-10.0000
G3 X49.0000 Y-54.4450 Z-10.0000 I0.1765 J0.4678
G1 X49.0000 Y-17.3205 Z-10.0000
G3 X48.0291 Y-17.1523 Z-10.0000 I-0.5000 J0.0000
G0 X48.0291 Y-17.1523 Z1.0000
G0 X52.0000 Y13.9232 Z1.0000
G0 X52.0000 Y13.9232 Z0.0000
G3 X51.2982 Y14.3807 Z-0.0105 I-0.5000 J0.0000
G2 X46.7806 Y12.8334 Z-0.0608 I-11.2982 J25.6193
G3 X46.4182 Y12.2210 Z-0.0692 I0.1211 J-0.4851
G2 X16.3713 Y-45.1218 Z-0.8176 I-46.4182 J-12.2210
G3 X16.3653 Y-46.0597 Z-0.8304 I0.1705 J-0.4700
G1 X51.3235 Y-59.2514 Z-1.2240
G3 X52.0000 Y-58.7836 Z-1.2341 I0.1765 J0.4678
G1 X52.0000 Y13.9232 Z-2.0000
G3 X51.2982 Y14.3807 Z-2.0105 I-0.5000 J0.0000
G2 X46.7806 Y12.8334 Z-2.0608 I-11.2982 J25.6193
G3 X46.4182 Y12.2210 Z-2.0692 I0.1211 J-0.4851
G2 X16.3713 Y-45.1218 Z-2.8176 I-46.4182 J-12.2210
G3 X16.3653 Y-46.0597 Z-2.8304 I0.1705 J-0.4700
G1 X51.3235 Y-59.2514 Z-3.2240
G3 X52.0000 Y-58.7836 Z-3.2341 I0.1765 J0.4678
G1 X52.0000 Y13.9232 Z-4.0000
G3 X51.2982 Y14.3807 Z-4.0105 I-0.5000 J0.0000
G2 X46.7806 Y12.8334 Z-4.0608 I-11.2982 J25.6193
G3 X46.4182 Y12.2210 Z-4.0692 I0.1211 J-0.4851
G2 X16.3713 Y-45.1218 Z-4.8176 I-46.4182 J-12.2210
G3 X16.3653 Y-46.0597 Z-4.8304 I0.1705 J-0.4700
G1 X51.3235 Y-59.2514 Z-5.2240
G3 X52.0000 Y-58.7836 Z-5.2341 I0.1765 J0.4678
G1 X52.0000 Y13.9232 Z-6.0000
G3 X51.2982 Y14.3807 Z-6.0105 I-0.5000 J0.0000
G2 X46.7806 Y12.8334 Z-6.0608 I-11.2982 J25.6193
G3 X46.4182 Y12.2210 Z-6.0692 I0.1211 J-0.4851
G2 X16.3713 Y-45.1218 Z-6.8176 I-46.4182 J-12.2210
G3 X16.3653 Y-46.0597 Z-6.8304 I0.1705 J-0.4700
G1 X51.3235 Y-59.2514 Z-7.2240
G3 X52.0000 Y-58.7836 Z-7.2341 I0.1765 J0.4678
G1 X52.0000 Y13.9232 Z-8.0000
G3 X51.2982 Y14.3807 Z-8.0105 I-0.5000 J0.0000
G2 X46.7806 Y12.8334 Z-8.0608 I-11.2982 J25.6193
G3 X46.4182 Y12.2210 Z-8.0692 I0.1211 J-0.4851
G2 X16.3713 Y-45.1218 Z-8.8176 I-46.4182 J-12.2210
G3 X16.3653 Y-46.0597 Z-8.8304 I0.1705 J-0.4700
G1 X51.3235 Y-59.2514 Z-9.2240
G3 X52.0000 Y-58.7836 Z-9.2341 I0.1765 J0.4678
G1 X52.0000 Y13.9232 Z-10.0000
G3 X51.2982 Y14.3807 Z-10.0000 I-0.5000 J0.0000
G2 X46.7806 Y12.8334 Z-10.0000 I-11.2982 J25.6193
G3 X46.4182 Y12.2210 Z-10.0000 I0.1211 J-0.4851
G2 X16.3713 Y-45.1218 Z-10.0000 I-46.4182 J-12.2210
G3 X16.3653 Y-46.0597 Z-10.0000 I0.1705 J-0.4700
G1 X51.3235 Y-59.2514 Z-10.0000
G3 X52.0000 Y-58.7836 Z-10.0000 I0.1765 J0.4678
G1 X52.0000 Y13.9232 Z-10.0000
G0 X52.0000 Y13.9232 Z1.0000
G0 X54.3235 Y-63.5900 Z1.0000
G0 X54.3235 Y-63.5900 Z0.0000
G3 X55.0000 Y-63.1222 Z-0.0084 I0.1765 J0.4678
G1 X55.0000 Y19.0238 Z-0.7267
G3 X54.2157 Y19.4351 Z-0.7362 I-0.5000 J0.0000
G2 X43.0050 Y15.1813 Z-0.8421 I-14.2157 J20.5649
G3 X42.5919 Y14.5235 Z-0.8498 I0.0601 J-0.4964
G2 X6.4747 Y-44.5318 Z-1.5403 I-42.5919 J-14.5235
G3 X6.3701 Y-45.4944 Z-1.5519 I0.0719 J-0.4948
G1 X54.3235 Y-63.5900 Z-2.0000
G3 X55.0000 Y-63.1222 Z-2.0084 I0.1765 J0.4678
G1 X55.0000 Y19.0238 Z-2.7267
G3 X54.2157 Y19.4351 Z-2.7362 I-0.5000 J0.0000
G2 X43.0050 Y15.1813 Z-2.8421 I-14.2157 J20.5649
G3 X42.5919 Y14.5235 Z-2.8498 I0.0601 J-0.4964
G2 X6.4747 Y-44.5318 Z-3.5403 I-42.5919 J-14.5235
G3 X6.3701 Y-45.4944 Z-3.5519 I0.0719 J-0.4948
G1 X54.3235 Y-63.5900 Z-4.0000
G3 X55.0000 Y-63.1222 Z-4.0084 I0.1765 J0.4678
G1 X55.0000 Y19.0238 Z-4.7267
G3 X54.2157 Y19.4351 Z-4.7362 I-0.5000 J0.0000
G2 X43.0050 Y15.1813 Z-4.8421 I-14.2157 J20.5649
G3 X42.5919 Y14.5235 Z-4.8498 I0.0601 J-0.4964
G2 X6.4747 Y-44.5318 Z-5.5403 I-42.5919 J-14.5235
G3 X6.3701 Y-45.4944 Z-5.5519 I0.0719 J-0.4948
G1 X54.3235 Y-63.5900 Z-6.0000
G3 X55.0000 Y-63.1222 Z-6.0084 I0.1765 J0.4678
G1 X55.0000 Y19.0238 Z-6.7267
G3 X54.2157 Y19.4351 Z-6.7362 I-0.5000 J0.0000
G2 X43.0050 Y15.1813 Z-6.8421 I-14.2157 J20.5649
G3 X42.5919 Y14.5235 Z-6.8498 I0.0601 J-0.4964
G2 X6.4747 Y-44.5318 Z-7.5403 I-42.5919 J-14.5235
G3 X6.3701 Y-45.4944 Z-7.5519 I0.0719 J-0.4948
G1 X54.3235 Y-63.5900 Z-8.0000
G3 X55.0000 Y-63.1222 Z-8.0084 I0.1765 J0.4678
G1 X55.0000 Y19.0238 Z-8.7267
G3 X54.2157 Y19.4351 Z-8.7362 I-0.5000 J0.0000
G2 X43.0050 Y15.1813 Z-8.8421 I-14.2157 J20.5649
G3 X42.5919 Y14.5235 Z-8.8498 I0.0601 J-0.4964
G2 X6.4747 Y-44.5318 Z-9.5403 I-42.5919 J-14.5235
G3 X6.3701 Y-45.4944 Z-9.5519 I0.0719 J-0.4948
G1 X54.3235 Y-63.5900 Z-10.0000
G3 X55.0000 Y-63.1222 Z-10.0000 I0.1765 J0.4678
G1 X55.0000 Y19.0238 Z-10.0000
G3 X54.2157 Y19.4351 Z-10.0000 I-0.5000 J0.0000
G2 X43.0050 Y15.1813 Z-10.0000 I-14.2157 J20.5649
G3 X42.5919 Y14.5235 Z-10.0000 I0.0601 J-0.4964
G2 X6.4747 Y-44.5318 Z-10.0000 I-42.5919 J-14.5235
G3 X6.3701 Y-45.4944 Z-10.0000 I0.0719 J-0.4948
G1 X54.3235 Y-63.5900 Z-10.0000
G0 X54.3235 Y-63.5900 Z1.0000
G0 X-43.0000 Y38.7298 Z1.0000
G0 X-43.0000 Y38.7298 Z0.0000
G3 X-42.1304 Y38.3931 Z-0.5105 I0.5000 J0.0000
G2 X-41.7594 Y38.7963 Z-0.7433 I42.1304 J-38.3931
G3 X-41.9021 Y39.5838 Z-1.1376 I-0.3663 J0.3403
G1 X-42.2764 Y39.7709 Z-1.3154
G3 X-43.0000 Y39.3237 Z-1.7476 I-0.2236 J-0.4472
G1 X-43.0000 Y38.7298 Z-2.0000
G3 X-42.1304 Y38.3931 Z-2.5105 I0.5000 J0.0000
G2 X-41.7594 Y38.7963 Z-2.7433 I42.1304 J-38.3931
G3 X-41.9021 Y39.5838 Z-3.1376 I-0.3663 J0.3403
G1 X-42.2764 Y39.7709 Z-3.3154
G3 X-43.0000 Y39.3237 Z-3.7476 I-0.2236 J-0.4472
G1 X-43.0000 Y38.7298 Z-4.0000
G3 X-42.1304 Y38.3931 Z-4.5105 I0.5000 J0.0000
G2 X-41.7594 Y38.7963 Z-4.7433 I42.1304 J-38.3931
G3 X-41.9021 Y39.5838 Z-5.1376 I-0.3663 J0.3403
G1 X-42.2764 Y39.7709 Z-5.3154
G3 X-43.0000 Y39.3237 Z-5.7476 I-0.2236 J-0.4472
G1 X-43.0000 Y38.7298 Z-6.0000
G3 X-42.1304 Y38.3931 Z-6.5105 I0.5000 J0.0000
G2 X-41.7594 Y38.7963 Z-6.7433 I42.1304 J-38.3931
G3 X-41.9021 Y39.5838 Z-7.1376 I-0.3663 J0.3403
G1 X-42.2764 Y39.7709 Z-7.3154
G3 X-43.0000 Y39.3237 Z-7.7476 I-0.2236 J-0.4472
G1 X-43.0000 Y38.7298 Z-8.0000
G3 X-42.1304 Y38.3931 Z-8.5105 I0.5000 J0.0000
G2 X-41.7594 Y38.7963 Z-8.7433 I42.1304 J-38.3931
G3 X-41.9021 Y39.5838 Z-9.1376 I-0.3663 J0.3403
G1 X-42.2764 Y39.7709 Z-9.3154
G3 X-43.0000 Y39.3237 Z-9.7476 I-0.2236 J-0.4472
G1 X-43.0000 Y38.7298 Z-10.0000
G3 X-42.1304 Y38.3931 Z-10.0000 I0.5000 J0.0000
G2 X-41.7594 Y38.7963 Z-10.0000 I42.1304 J-38.3931
G3 X-41.9021 Y39.5838 Z-10.0000 I-0.3663 J0.3403
G1 X-42.2764 Y39.7709 Z-10.0000
G3 X-43.0000 Y39.3237 Z-10.0000 I-0.2236 J-0.4472
G1 X-43.0000 Y38.7298 Z-10.0000
G0 X-43.0000 Y38.7298 Z1.0000
G0 X-36.8380 Y40.4058 Z1.0000
G0 X-36.8380 Y40.4058 Z0.0000
G1 X-45.2764 Y44.6250 Z-0.4736
G3 X-46.0000 Y44.1778 Z-0.5247 I-0.2236 J-0.4472
G1 X-46.0000 Y30.0000 Z-1.2365
G3 X-45.0826 Y29.7248 Z-1.3007 I0.5000 J0.0000
G2 X-36.7215 Y39.5920 Z-1.9516 I45.0826 J-29.7248
G3 X-36.8380 Y40.4058 Z-2.0000 I-0.3400 J0.3666
G1 X-45.2764 Y44.6250 Z-2.4736
G3 X-46.0000 Y44.1778 Z-2.5247 I-0.2236 J-0.4472
G1 X-46.0000 Y30.0000 Z-3.2365
G3 X-45.0826 Y29.7248 Z-3.3007 I0.5000 J0.0000
G2 X-36.7215 Y39.5920 Z-3.9516 I45.0826 J-29.7248
G3 X-36.8380 Y40.4058 Z-4.0000 I-0.3400 J0.3666
G1 X-45.2764 Y44.6250 Z-4.4736
G3 X-46.0000 Y44.1778 Z-4.5247 I-0.2236 J-0.4472
G1 X-46.0000 Y30.0000 Z-5.2365
G3 X-45.0826 Y29.7248 Z-5.3007 I0.5000 J0.0000
G2 X-36.7215 Y39.5920 Z-5.9516 I45.0826 J-29.7248
G3 X-36.8380 Y40.4058 Z-6.0000 I-0.3400 J0.3666
G1 X-45.2764 Y44.6250 Z-6.4736
G3 X-46.0000 Y44.1778 Z-6.5247 I-0.2236 J-0.4472
G1 X-46.0000 Y30.0000 Z-7.2365
G3 X-45.0826 Y29.7248 Z-7.3007 I0.5000 J0.0000
G2 X-36.7215 Y39.5920 Z-7.9516 I45.0826 J-29.7248
G3 X-36.8380 Y40.4058 Z-8.0000 I-0.3400 J0.3666
G1 X-45.2764 Y44.6250 Z-8.4736
G3 X-46.0000 Y44.1778 Z-8.5247 I-0.2236 J-0.4472
G1 X-46.0000 Y30.0000 Z-9.2365
G3 X-45.0826 Y29.7248 Z-9.3007 I0.5000 J0.0000
G2 X-36.7215 Y39.5920 Z-9.9516 I45.0826 J-29.7248
G3 X-36.8380 Y40.4058 Z-10.0000 I-0.3400 J0.3666
G1 X-45.2764 Y44.6250 Z-10.0000
G3 X-46.0000 Y44.1778 Z-10.0000 I-0.2236 J-0.4472
G1 X-46.0000 Y30.0000 Z-10.0000
G3 X-45.0826 Y29.7248 Z-10.0000 I0.5000 J0.0000
G2 X-36.7215 Y39.5920 Z-10.0000 I45.0826 J-29.7248
G3 X-36.8380 Y40.4058 Z-10.0000 I-0.3400 J0.3666
G0 X-36.8380 Y40.4058 Z1.0000
G0 X-49.0000 Y49.0319 Z1.0000
G0 X-49.0000 Y49.0319 Z0.0000
G1 X-49.0000 Y17.3205 Z-0.7660
G3 X-48.0291 Y17.1523 Z-0.7998 I0.5000 J0.0000
G2 X-31.3580 Y40.2203 Z-1.4965 I48.0291 J-17.1523
G3 X-31.4418 Y41.0619 Z-1.5208 I-0.3074 J0.3943
G1 X-48.2764 Y49.4791 Z-1.9754
G3 X-49.0000 Y49.0319 Z-2.0000 I-0.2236 J-0.4472
G1 X-49.0000 Y17.3205 Z-2.7660
G3 X-48.0291 Y17.1523 Z-2.7998 I0.5000 J0.0000
G2 X-31.3580 Y40.2203 Z-3.4965 I48.0291 J-17.1523
G3 X-31.4418 Y41.0619 Z-3.5208 I-0.3074 J0.3943
G1 X-48.2764 Y49.4791 Z-3.9754
G3 X-49.0000 Y49.0319 Z-4.0000 I-0.2236 J-0.4472
G1 X-49.0000 Y17.3205 Z-4.7660
G3 X-48.0291 Y17.1523 Z-4.7998 I0.5000 J0.0000
G2 X-31.3580 Y40.2203 Z-5.4965 I48.0291 J-17.1523
G3 X-31.4418 Y41.0619 Z-5.5208 I-0.3074 J0.3943
G1 X-48.2764 Y49.4791 Z-5.9754
G3 X-49.0000 Y49.0319 Z-6.0000 I-0.2236 J-0.4472
G1 X-49.0000 Y17.3205 Z-6.7660
G3 X-48.0291 Y17.1523 Z-6.7998 I0.5000 J0.0000
G2 X-31.3580 Y40.2203 Z-7.4965 I48.0291 J-17.1523
G3 X-31.4418 Y41.0619 Z-7.5208 I-0.3074 J0.3943
G1 X-48.2764 Y49.4791 Z-7.9754
G3 X-49.0000 Y49.0319 Z-8.0000 I-0.2236 J-0.4472
G1 X-49.0000 Y17.3205 Z-8.7660
G3 X-48.0291 Y17.1523 Z-8.7998 I0.5000 J0.0000
G2 X-31.3580 Y40.2203 Z-9.4965 I48.0291 J-17.1523
G3 X-31.4418 Y41.0619 Z-9.5208 I-0.3074 J0.3943
G1 X-48.2764 Y49.4791 Z-9.9754
G3 X-49.0000 Y49.0319 Z-10.0000 I-0.2236 J-0.4472
G1 X-49.0000 Y17.3205 Z-10.0000
G3 X-48.0291 Y17.1523 Z-10.0000 I0.5000 J0.0000
G2 X-31.3580 Y40.2203 Z-10.0000 I48.0291 J-17.1523
G3 X-31.4418 Y41.0619 Z-10.0000 I-0.3074 J0.3943
G1 X-48.2764 Y49.4791 Z-10.0000
G3 X-49.0000 Y49.0319 Z-10.0000 I-0.2236 J-0.4472
G0 X-49.0000 Y49.0319 Z1.0000
G0 X-49.0000 Y-17.3205 Z1.0000
G0 X-49.0000 Y-17.3205 Z0.0000
G1 X-49.0000 Y-17.8413 Z-0.2294
G3 X-48.6765 Y-18.3091 Z-0.4959 I0.5000 J0.0000
G1 X-48.4567 Y-18.3920 Z-0.5995
G3 X-47.8114 Y-17.7502 Z-1.1032 I0.1765 J0.4678
G2 X-48.0291 Y-17.1523 Z-1.3836 I47.8114 J17.7502
G3 X-49.0000 Y-17.3205 Z-2.0000 I-0.4709 J-0.1682
G1 X-49.0000 Y-17.8413 Z-2.2294
G3 X-48.6765 Y-18.3091 Z-2.4959 I0.5000 J0.0000
G1 X-48.4567 Y-18.3920 Z-2.5995
G3 X-47.8114 Y-17.7502 Z-3.1032 I0.1765 J0.4678
G2 X-48.0291 Y-17.1523 Z-3.3836 I47.8114 J17.7502
G3 X-49.0000 Y-17.3205 Z-4.0000 I-0.4709 J-0.1682
G1 X-49.0000 Y-17.8413 Z-4.2294
G3 X-48.6765 Y-18.3091 Z-4.4959 I0.5000 J0.0000
G1 X-48.4567 Y-18.3920 Z-4.5995
G3 X-47.8114 Y-17.7502 Z-5.1032 I0.1765 J0.4678
G2 X-48.0291 Y-17.1523 Z-5.3836 I47.8114 J17.7502
G3 X-49.0000 Y-17.3205 Z-6.0000 I-0.4709 J-0.1682
G1 X-49.0000 Y-17.8413 Z-6.2294
G3 X-48.6765 Y-18.3091 Z-6.4959 I0.5000 J0.0000
G1 X-48.4567 Y-18.3920 Z-6.5995
G3 X-47.8114 Y-17.7502 Z-7.1032 I0.1765 J0.4678
G2 X-48.0291 Y-17.1523 Z-7.3836 I47.8114 J17.7502
G3 X-49.0000 Y-17.3205 Z-8.0000 I-0.4709 J-0.1682
G1 X-49.0000 Y-17.8413 Z-8.2294
G3 X-48.6765 Y-18.3091 Z-8.4959 I0.5000 J0.0000
G1 X-48.4567 Y-18.3920 Z-8.5995
G3 X-47.8114 Y-17.7502 Z-9.1032 I0.1765 J0.4678
G2 X-48.0291 Y-17.1523 Z-9.3836 I47.8114 J17.7502
G3 X-49.0000 Y-17.3205 Z-10.0000 I-0.4709 J-0.1682
G1 X-49.0000 Y-17.8413 Z-10.0000
G3 X-48.6765 Y-18.3091 Z-10.0000 I0.5000 J0.0000
G1 X-48.4567 Y-18.3920 Z-10.0000
G3 X-47.8114 Y-17.7502 Z-10.0000 I0.1765 J0.4678
G2 X-48.0291 Y-17.1523 Z-10.0000 I47.8114 J17.7502
G3 X-49.0000 Y-17.3205 Z-10.0000 I-0.4709 J-0.1682
G0 X-49.0000 Y-17.3205 Z1.0000
G0 X-25.6050 Y41.4976 Z1.0000
G0 X-25.6050 Y41.4976 Z0.0000
G1 X-51.2764 Y54.3332 Z-0.3046
G3 X-52.0000 Y53.8860 Z-0.3154 I-0.2236 J-0.4472
G1 X-52.0000 Y-19.9157 Z-1.0985
G3 X-51.6765 Y-20.3835 Z-1.1049 I0.5000 J0.0000
G1 X-42.7144 Y-23.7654 Z-1.2066
G3 X-42.0993 Y-23.0574 Z-1.2195 I0.1765 J0.4678
G2 X-25.5624 Y40.6272 Z-1.9888 I42.0993 J23.0574
G3 X-25.6050 Y41.4976 Z-2.0000 I-0.2663 J0.4232
G1 X-51.2764 Y54.3332 Z-2.3046
G3 X-52.0000 Y53.8860 Z-2.3154 I-0.2236 J-0.4472
G1 X-52.0000 Y-19.9157 Z-3.0985
G3 X-51.6765 Y-20.3835 Z-3.1049 I0.5000 J0.0000
G1 X-42.7144 Y-23.7654 Z-3.2066
G3 X-42.0993 Y-23.0574 Z-3.2195 I0.1765 J0.4678
G2 X-25.5624 Y40.6272 Z-3.9888 I42.0993 J23.0574
G3 X-25.6050 Y41.4976 Z-4.0000 I-0.2663 J0.4232
G1 X-51.2764 Y54.3332 Z-4.3046
G3 X-52.0000 Y53.8860 Z-4.3154 I-0.2236 J-0.4472
G1 X-52.0000 Y-19.9157 Z-5.0985
G3 X-51.6765 Y-20.3835 Z-5.1049 I0.5000 J0.0000
G1 X-42.7144 Y-23.7654 Z-5.2066
G3 X-42.0993 Y-23.0574 Z-5.2195 I0.1765 J0.4678
G2 X-25.5624 Y40.6272 Z-5.9888 I42.0993 J23.0574
G3 X-25.6050 Y41.4976 Z-6.0000 I-0.2663 J0.4232
G1 X-51.2764 Y54.3332 Z-6.3046
G3 X-52.0000 Y53.8860 Z-6.3154 I-0.2236 J-0.4472
G1 X-52.0000 Y-19.9157 Z-7.0985
G3 X-51.6765 Y-20.3835 Z-7.1049 I0.5000 J0.0000
G1 X-42.7144 Y-23.7654 Z-7.2066
G3 X-42.0993 Y-23.0574 Z-7.2195 I0.1765 J0.4678
G2 X-25.5624 Y40.6272 Z-7.9888 I42.0993 J23.0574
G3 X-25.6050 Y41.4976 Z-8.0000 I-0.2663 J0.4232
G1 X-51.2764 Y54.3332 Z-8.3046
G3 X-52.0000 Y53.8860 Z-8.3154 I-0.2236 J-0.4472
G1 X-52.0000 Y-19.9157 Z-9.0985
G3 X-51.6765 Y-20.3835 Z-9.1049 I0.5000 J0.0000
G1 X-42.7144 Y-23.7654 Z-9.2066
G3 X-42.0993 Y-23.0574 Z-9.2195 I0.1765 J0.4678
G2 X-25.5624 Y40.6272 Z-9.9888 I42.0993 J23.0574
G3 X-25.6050 Y41.4976 Z-10.0000 I-0.2663 J0.4232
G1 X-51.2764 Y54.3332 Z-10.0000
G3 X-52.0000 Y53.8860 Z-10.0000 I-0.2236 J-0.4472
G1 X-52.0000 Y-19.9157 Z-10.0000
G3 X-51.6765 Y-20.3835 Z-10.0000 I0.5000 J0.0000
G1 X-42.7144 Y-23.7654 Z-10.0000
G3 X-42.0993 Y-23.0574 Z-10.0000 I0.1765 J0.4678
G2 X-25.5624 Y40.6272 Z-10.0000 I42.0993 J23.0574
G3 X-25.6050 Y41.4976 Z-10.0000 I-0.2663 J0.4232
G0 X-25.6050 Y41.4976 Z1.0000
G0 X-34.2801 Y-29.1526 Z1.0000
G0 X-34.2801 Y-29.1526 Z0.0000
G2 X-19.1530 Y40.7206 Z-0.7250 I34.2801 J29.1526
G3 X-19.1422 Y41.6202 Z-0.7349 I-0.2128 J0.4525
G1 X-54.2764 Y59.1873 Z-1.0796
G3 X-55.0000 Y58.7401 Z-1.0885 I-0.2236 J-0.4472
G1 X-55.0000 Y-21.9901 Z-1.7970
G3 X-54.6765 Y-22.4579 Z-1.8023 I0.5000 J0.0000
G1 X-34.8375 Y-29.9443 Z-1.9884
G3 X-34.2801 Y-29.1526 Z-2.0000 I0.1765 J0.4678
G2 X-19.1530 Y40.7206 Z-2.7250 I34.2801 J29.1526
G3 X-19.1422 Y41.6202 Z-2.7349 I-0.2128 J0.4525
G1 X-54.2764 Y59.1873 Z-3.0796
G3 X-55.0000 Y58.7401 Z-3.0885 I-0.2236 J-0.4472
G1 X-55.0000 Y-21.9901 Z-3.7970
G3 X-54.6765 Y-22.4579 Z-3.8023 I0.5000 J0.0000
G1 X-34.8375 Y-29.9443 Z-3.9884
G3 X-34.2801 Y-29.1526 Z-4.0000 I0.1765 J0.4678
G2 X-19.1530 Y40.7206 Z-4.7250 I34.2801 J29.1526
G3 X-19.1422 Y41.6202 Z-4.7349 I-0.2128 J0.4525
G1 X-54.2764 Y59.1873 Z-5.0796
G3 X-55.0000 Y58.7401 Z-5.0885 I-0.2236 J-0.4472
G1 X-55.0000 Y-21.9901 Z-5.7970
G3 X-54.6765 Y-22.4579 Z-5.8023 I0.5000 J0.0000
G1 X-34.8375 Y-29.9443 Z-5.9884
G3 X-34.2801 Y-29.1526 Z-6.0000 I0.1765 J0.4678
G2 X-19.1530 Y40.7206 Z-6.7250 I34.2801 J29.1526
G3 X-19.1422 Y41.6202 Z-6.7349 I-0.2128 J0.4525
G1 X-54.2764 Y59.1873 Z-7.0796
G3 X-55.0000 Y58.7401 Z-7.0885 I-0.2236 J-0.4472
G1 X-55.0000 Y-21.9901 Z-7.7970
G3 X-54.6765 Y-22.4579 Z-7.8023 I0.5000 J0.0000
G1 X-34.8375 Y-29.9443 Z-7.9884
G3 X-34.2801 Y-29.1526 Z-8.0000 I0.1765 J0.4678
G2 X-19.1530 Y40.7206 Z-8.7250 I34.2801 J29.1526
G3 X-19.1422 Y41.6202 Z-8.7349 I-0.2128 J0.4525
G1 X-54.2764 Y59.1873 Z-9.0796
G3 X-55.0000 Y58.7401 Z-9.0885 I-0.2236 J-0.4472
G1 X-55.0000 Y-21.9901 Z-9.7970
G3 X-54.6765 Y-22.4579 Z-9.8023 I0.5000 J0.0000
G1 X-34.8375 Y-29.9443 Z-9.9884
G3 X-34.2801 Y-29.1526 Z-10.0000 I0.1765 J0.4678
G2 X-19.1530 Y40.7206 Z-10.0000 I34.2801 J29.1526
G3 X-19.1422 Y41.6202 Z-10.0000 I-0.2128 J0.4525
G1 X-54.2764 Y59.1873 Z-10.0000
G3 X-55.0000 Y58.7401 Z-10.0000 I-0.2236 J-0.4472
G1 X-55.0000 Y-21.9901 Z-10.0000
G3 X-54.6765 Y-22.4579 Z-10.0000 I0.5000 J0.0000
G1 X-34.8375 Y-29.9443 Z-10.0000
G3 X-34.2801 Y-29.1526 Z-10.0000 I0.1765 J0.4678
G0 X-34.2801 Y-29.1526 Z1.0000
G0 X58.0000 Y25.8579 Z1.0000
G0 X58.0000 Y25.8579 Z0.0000
G3 X57.1111 Y26.1721 Z-0.0042 I-0.5000 J0.0000
G2 X38.7418 Y18.0360 Z-0.0755 I-17.1111 J13.8279
G3 X38.2577 Y17.3305 Z-0.0790 I-0.0286 J-0.4992
G2 X-11.7672 Y40.3179 Z-0.7752 I-38.2577 J-17.3305
G3 X-11.6837 Y41.2451 Z-0.7792 I-0.1401 J0.4800
G1 X-57.2764 Y64.0414 Z-0.9533
G3 X-58.0000 Y63.5942 Z-0.9568 I-0.2236 J-0.4472
G1 X-58.0000 Y-24.0645 Z-1.2562
G3 X-57.6765 Y-24.5323 Z-1.2582 I0.5000 J0.0000
G1 X57.3235 Y-67.9285 Z-1.6780
G3 X58.0000 Y-67.4607 Z-1.6813 I0.1765 J0.4678
G1 X58.0000 Y25.8579 Z-2.0000
G3 X57.1111 Y26.1721 Z-2.0042 I-0.5000 J0.0000
G2 X38.7418 Y18.0360 Z-2.0755 I-17.1111 J13.8279
G3 X38.2577 Y17.3305 Z-2.0790 I-0.0286 J-0.4992
G2 X-11.7672 Y40.3179 Z-2.7752 I-38.2577 J-17.3305
G3 X-11.6837 Y41.2451 Z-2.7792 I-0.1401 J0.4800
G1 X-57.2764 Y64.0414 Z-2.9533
G3 X-58.0000 Y63.5942 Z-2.9568 I-0.2236 J-0.4472
G1 X-58.0000 Y-24.0645 Z-3.2562
G3 X-57.6765 Y-24.5323 Z-3.2582 I0.5000 J0.0000
G1 X57.3235 Y-67.9285 Z-3.6780
G3 X58.0000 Y-67.4607 Z-3.6813 I0.1765 J0.4678
G1 X58.0000 Y25.8579 Z-4.0000
G3 X57.1111 Y26.1721 Z-4.0042 I-0.5000 J0.0000
G2 X38.7418 Y18.0360 Z-4.0755 I-17.1111 J13.8279
G3 X38.2577 Y17.3305 Z-4.0790 I-0.0286 J-0.4992
G2 X-11.7672 Y40.3179 Z-4.7752 I-38.2577 J-17.3305
G3 X-11.6837 Y41.2451 Z-4.7792 I-0.1401 J0.4800
G1 X-57.2764 Y64.0414 Z-4.9533
G3 X-58.0000 Y63.5942 Z-4.9568 I-0.2236 J-0.4472
G1 X-58.0000 Y-24.0645 Z-5.2562
G3 X-57.6765 Y-24.5323 Z-5.2582 I0.5000 J0.0000
G1 X57.3235 Y-67.9285 Z-5.6780
G3 X58.0000 Y-67.4607 Z-5.6813 I0.1765 J0.4678
G1 X58.0000 Y25.8579 Z-6.0000
G3 X57.1111 Y26.1721 Z-6.0042 I-0.5000 J0.0000
G2 X38.7418 Y18.0360 Z-6.0755 I-17.1111 J13.8279
G3 X38.2577 Y17.3305 Z-6.0790 I-0.0286 J-0.4992
G2 X-11.7672 Y40.3179 Z-6.7752 I-38.2577 J-17.3305
G3 X-11.6837 Y41.2451 Z-6.7792 I-0.1401 J0.4800
G1 X-57.2764 Y64.0414 Z-6.9533
G3 X-58.0000 Y63.5942 Z-6.9568 I-0.2236 J-0.4472
G1 X-58.0000 Y-24.0645 Z-7.2562
G3 X-57.6765 Y-24.5323 Z-7.2582 I0.5000 J0.0000
G1 X57.3235 Y-67.9285 Z-7.6780
G3 X58.0000 Y-67.4607 Z-7.6813 I0.1765 J0.4678
G1 X58.0000 Y25.8579 Z-8.0000
G3 X57.1111 Y26.1721 Z-8.0042 I-0.5000 J0.0000
G2 X38.7418 Y18.0360 Z-8.0755 I-17.1111 J13.8279
G3 X38.2577 Y17.3305 Z-8.0790 I-0.0286 J-0.4992
G2 X-11.7672 Y40.3179 Z-8.7752 I-38.2577 J-17.3305
G3 X-11.6837 Y41.2451 Z-8.7792 I-0.1401 J0.4800
G1 X-57.2764 Y64.0414 Z-8.9533
G3 X-58.0000 Y63.5942 Z-8.9568 I-0.2236 J-0.4472
G1 X-58.0000 Y-24.0645 Z-9.2562
G3 X-57.6765 Y-24.5323 Z-9.2582 I0.5000 J0.0000
G1 X57.3235 Y-67.9285 Z-9.6780
G3 X58.0000 Y-67.4607 Z-9.6813 I0.1765 J0.4678
G1 X58.0000 Y25.8579 Z-10.0000
G3 X57.1111 Y26.1721 Z-10.0000 I-0.5000 J0.0000
G2 X38.7418 Y18.0360 Z-10.0000 I-17.1111 J13.8279
G3 X38.2577 Y17.3305 Z-10.0000 I-0.0286 J-0.4992
G2 X-11.7672 Y40.3179 Z-10.0000 I-38.2577 J-17.3305
G3 X-11.6837 Y41.2451 Z-10.0000 I-0.1401 J0.4800
G1 X-57.2764 Y64.0414 Z-10.0000
G3 X-58.0000 Y63.5942 Z-10.0000 I-0.2236 J-0.4472
G1 X-58.0000 Y-24.0645 Z-10.0000
G3 X-57.6765 Y-24.5323 Z-10.0000 I0.5000 J0.0000
G1 X57.3235 Y-67.9285 Z-10.0000
G3 X58.0000 Y-67.4607 Z-10.0000 I0.1765 J0.4678
G1 X58.0000 Y25.8579 Z-10.0000
G0 X58.0000 Y25.8579 Z1.0000
G0 X61.0000 Y-71.7993 Z1.0000
G0 X61.0000 Y-71.7993 Z0.0000
G1 X61.0000 Y35.5959 Z-0.3355
G3 X60.0840 Y35.8732 Z-0.3394 I-0.5000 J0.0000
G1 X55.8090 Y29.4607 Z-0.3635
G2 X33.1004 Y22.2970 Z-0.4439 I-15.8090 J10.5393
G3 X32.5022 Y21.5548 Z-0.4479 I-0.1816 J-0.4659
G2 X-2.4201 Y38.9248 Z-1.0857 I-32.5022 J-21.5548
G3 X-2.2275 Y39.8711 Z-1.0898 I-0.0310 J0.4990
G1 X-60.2764 Y68.8956 Z-1.2925
G3 X-61.0000 Y68.4483 Z-1.2957 I-0.2236 J-0.4472
G1 X-61.0000 Y-26.1389 Z-1.5911
G3 X-60.6765 Y-26.6067 Z-1.5930 I0.5000 J0.0000
G1 X60.3235 Y-72.2671 Z-1.9970
G3 X61.0000 Y-71.7993 Z-2.0000 I0.1765 J0.4678
G1 X61.0000 Y35.5959 Z-2.3355
G3 X60.0840 Y35.8732 Z-2.3394 I-0.5000 J0.0000
G1 X55.8090 Y29.4607 Z-2.3635
G2 X33.1004 Y22.2970 Z-2.4439 I-15.8090 J10.5393
G3 X32.5022 Y21.5548 Z-2.4479 I-0.1816 J-0.4659
G2 X-2.4201 Y38.9248 Z-3.0857 I-32.5022 J-21.5548
G3 X-2.2275 Y39.8711 Z-3.0898 I-0.0310 J0.4990
G1 X-60.2764 Y68.8956 Z-3.2925
G3 X-61.0000 Y68.4483 Z-3.2957 I-0.2236 J-0.4472
G1 X-61.0000 Y-26.1389 Z-3.5911
G3 X-60.6765 Y-26.6067 Z-3.5930 I0.5000 J0.0000
G1 X60.3235 Y-72.2671 Z-3.9970
G3 X61.0000 Y-71.7993 Z-4.0000 I0.1765 J0.4678
G1 X61.0000 Y35.5959 Z-4.3355
G3 X60.0840 Y35.8732 Z-4.3394 I-0.5000 J0.0000
G1 X55.8090 Y29.4607 Z-4.3635
G2 X33.1004 Y22.2970 Z-4.4439 I-15.8090 J10.5393
G3 X32.5022 Y21.5548 Z-4.4479 I-0.1816 J-0.4659
G2 X-2.4201 Y38.9248 Z-5.0857 I-32.5022 J-21.5548
G3 X-2.2275 Y39.8711 Z-5.0898 I-0.0310 J0.4990
G1 X-60.2764 Y68.8956 Z-5.2925
G3 X-61.0000 Y68.4483 Z-5.2957 I-0.2236 J-0.4472
G1 X-61.0000 Y-26.1389 Z-5.5911
G3 X-60.6765 Y-26.6067 Z-5.5930 I0.5000 J0.0000
G1 X60.3235 Y-72.2671 Z-5.9970
G3 X61.0000 Y-71.7993 Z-6.0000 I0.1765 J0.4678
G1 X61.0000 Y35.5959 Z-6.3355
G3 X60.0840 Y35.8732 Z-6.3394 I-0.5000 J0.0000
G1 X55.8090 Y29.4607 Z-6.3635
G2 X33.1004 Y22.2970 Z-6.4439 I-15.8090 J10.5393
G3 X32.5022 Y21.5548 Z-6.4479 I-0.1816 J-0.4659
G2 X-2.4201 Y38.9248 Z-7.0857 I-32.5022 J-21.5548
G3 X-2.2275 Y39.8711 Z-7.0898 I-0.0310 J0.4990
G1 X-60.2764 Y68.8956 Z-7.2925
G3 X-61.0000 Y68.4483 Z-7.2957 I-0.2236 J-0.4472
G1 X-61.0000 Y-26.1389 Z-7.5911
G3 X-60.6765 Y-26.6067 Z-7.5930 I0.5000 J0.0000
G1 X60.3235 Y-72.2671 Z-7.9970
G3 X61.0000 Y-71.7993 Z-8.0000 I0.1765 J0.4678
G1 X61.0000 Y35.5959 Z-8.3355
G3 X60.0840 Y35.8732 Z-8.3394 I-0.5000 J0.0000
G1 X55.8090 Y29.4607 Z-8.3635
G2 X33.1004 Y22.2970 Z-8.4439 I-15.8090 J10.5393
G3 X32.5022 Y21.5548 Z-8.4479 I-0.1816 J-0.4659
G2 X-2.4201 Y38.9248 Z-9.0857 I-32.5022 J-21.5548
G3 X-2.2275 Y39.8711 Z-9.0898 I-0.0310 J0.4990
G1 X-60.2764 Y68.8956 Z-9.2925
G3 X-61.0000 Y68.4483 Z-9.2957 I-0.2236 J-0.4472
G1 X-61.0000 Y-26.1389 Z-9.5911
G3 X-60.6765 Y-26.6067 Z-9.5930 I0.5000 J0.0000
G1 X60.3235 Y-72.2671 Z-9.9970
G3 X61.0000 Y-71.7993 Z-10.0000 I0.1765 J0.4678
G1 X61.0000 Y35.5959 Z-10.0000
G3 X60.0840 Y35.8732 Z-10.0000 I-0.5000 J0.0000
G1 X55.8090 Y29.4607 Z-10.0000
G2 X33.1004 Y22.2970 Z-10.0000 I-15.8090 J10.5393
G3 X32.5022 Y21.5548 Z-10.0000 I-0.1816 J-0.4659
G2 X-2.4201 Y38.9248 Z-10.0000 I-32.5022 J-21.5548
G3 X-2.2275 Y39.8711 Z-10.0000 I-0.0310 J0.4990
G1 X-60.2764 Y68.8956 Z-10.0000
G3 X-61.0000 Y68.4483 Z-10.0000 I-0.2236 J-0.4472
G1 X-61.0000 Y-26.1389 Z-10.0000
G3 X-60.6765 Y-26.6067 Z-10.0000 I0.5000 J0.0000
G1 X60.3235 Y-72.2671 Z-10.0000
G3 X61.0000 Y-71.7993 Z-10.0000 I0.1765 J0.4678
G0 X61.0000 Y-71.7993 Z1.0000
G0 X-63.2764 Y73.7497 Z1.0000
G0 X-63.2764 Y73.7497 Z0.0000
G3 X-64.0000 Y73.3024 Z-0.0040 I-0.2236 J-0.4472
G1 X-64.0000 Y-28.2133 Z-0.4013
G3 X-63.6765 Y-28.6811 Z-0.4037 I0.5000 J0.0000
G1 X63.3235 Y-76.6057 Z-0.9350
G3 X64.0000 Y-76.1379 Z-0.9387 I0.1765 J0.4678
G1 X64.0000 Y45.5042 Z-1.4149
G3 X63.0840 Y45.7816 Z-1.4199 I-0.5000 J0.0000
G1 X53.3128 Y31.1248 Z-1.4888
G2 X32.8446 Y25.6892 Z-1.5794 I-13.3128 J8.8752
G1 X-63.2764 Y73.7497 Z-2.0000
G3 X-64.0000 Y73.3024 Z-2.0040 I-0.2236 J-0.4472
G1 X-64.0000 Y-28.2133 Z-2.4013
G3 X-63.6765 Y-28.6811 Z-2.4037 I0.5000 J0.0000
G1 X63.3235 Y-76.6057 Z-2.9350
G3 X64.0000 Y-76.1379 Z-2.9387 I0.1765 J0.4678
G1 X64.0000 Y45.5042 Z-3.4149
G3 X63.0840 Y45.7816 Z-3.4199 I-0.5000 J0.0000
G1 X53.3128 Y31.1248 Z-3.4888
G2 X32.8446 Y25.6892 Z-3.5794 I-13.3128 J8.8752
G1 X-63.2764 Y73.7497 Z-4.0000
G3 X-64.0000 Y73.3024 Z-4.0040 I-0.2236 J-0.4472
G1 X-64.0000 Y-28.2133 Z-4.4013
G3 X-63.6765 Y-28.6811 Z-4.4037 I0.5000 J0.0000
G1 X63.3235 Y-76.6057 Z-4.9350
G3 X64.0000 Y-76.1379 Z-4.9387 I0.1765 J0.4678
G1 X64.0000 Y45.5042 Z-5.4149
G3 X63.0840 Y45.7816 Z-5.4199 I-0.5000 J0.0000
G1 X53.3128 Y31.1248 Z-5.4888
G2 X32.8446 Y25.6892 Z-5.5794 I-13.3128 J8.8752
G1 X-63.2764 Y73.7497 Z-6.0000
G3 X-64.0000 Y73.3024 Z-6.0040 I-0.2236 J-0.4472
G1 X-64.0000 Y-28.2133 Z-6.4013
G3 X-63.6765 Y-28.6811 Z-6.4037 I0.5000 J0.0000
G1 X63.3235 Y-76.6057 Z-6.9350
G3 X64.0000 Y-76.1379 Z-6.9387 I0.1765 J0.4678
G1 X64.0000 Y45.5042 Z-7.4149
G3 X63.0840 Y45.7816 Z-7.4199 I-0.5000 J0.0000
G1 X53.3128 Y31.1248 Z-7.4888
G2 X32.8446 Y25.6892 Z-7.5794 I-13.3128 J8.8752
G1 X-63.2764 Y73.7497 Z-8.0000
G3 X-64.0000 Y73.3024 Z-8.0040 I-0.2236 J-0.4472
G1 X-64.0000 Y-28.2133 Z-8.4013
G3 X-63.6765 Y-28.6811 Z-8.4037 I0.5000 J0.0000
G1 X63.3235 Y-76.6057 Z-8.9350
G3 X64.0000 Y-76.1379 Z-8.9387 I0.1765 J0.4678
G1 X64.0000 Y45.5042 Z-9.4149
G3 X63.0840 Y45.7816 Z-9.4199 I-0.5000 J0.0000
G1 X53.3128 Y31.1248 Z-9.4888
G2 X32.8446 Y25.6892 Z-9.5794 I-13.3128 J8.8752
G1 X-63.2764 Y73.7497 Z-10.0000
G3 X-64.0000 Y73.3024 Z-10.0000 I-0.2236 J-0.4472
G1 X-64.0000 Y-28.2133 Z-10.0000
G3 X-63.6765 Y-28.6811 Z-10.0000 I0.5000 J0.0000
G1 X63.3235 Y-76.6057 Z-10.0000
G3 X64.0000 Y-76.1379 Z-10.0000 I0.1765 J0.4678
G1 X64.0000 Y45.5042 Z-10.0000
G3 X63.0840 Y45.7816 Z-10.0000 I-0.5000 J0.0000
G1 X53.3128 Y31.1248 Z-10.0000
G2 X32.8446 Y25.6892 Z-10.0000 I-13.3128 J8.8752
G1 X-63.2764 Y73.7497 Z-10.0000
G0 X-63.2764 Y73.7497 Z1.0000
G0 X36.0000 Y0.0000 Z1.0000
G0 X36.0000 Y0.0000 Z0.0000
G2 X36.0000 Y0.0000 Z-2.0000 I-36.0000 J0.0000
G2 X36.0000 Y0.0000 Z-4.0000 I-36.0000 J0.0000
G2 X36.0000 Y0.0000 Z-6.0000 I-36.0000 J0.0000
G2 X36.0000 Y0.0000 Z-8.0000 I-36.0000 J0.0000
G2 X36.0000 Y0.0000 Z-10.0000 I-36.0000 J0.0000
G2 X36.0000 Y0.0000 Z-10.0000 I-36.0000 J0.0000
G0 X36.0000 Y0.0000 Z1.0000
G0 X66.3235 Y-80.9442 Z1.0000
G0 X66.3235 Y-80.9442 Z0.0000
G3 X67.0000 Y-80.4764 Z-0.0035 I0.1765 J0.4678
G1 X67.0000 Y55.4125 Z-0.4986
G3 X66.0840 Y55.6899 Z-0.5032 I-0.5000 J0.0000
G1 X50.8167 Y32.7889 Z-0.6035
G2 X34.1862 Y28.3724 Z-0.6720 I-10.8167 J7.2111
G1 X-66.2764 Y78.6038 Z-1.0812
G3 X-67.0000 Y78.1565 Z-1.0849 I-0.2236 J-0.4472
G1 X-67.0000 Y-30.2878 Z-1.4799
G3 X-66.6765 Y-30.7556 Z-1.4821 I0.5000 J0.0000
G1 X66.3235 Y-80.9442 Z-2.0000
G3 X67.0000 Y-80.4764 Z-2.0035 I0.1765 J0.4678
G1 X67.0000 Y55.4125 Z-2.4986
G3 X66.0840 Y55.6899 Z-2.5032 I-0.5000 J0.0000
G1 X50.8167 Y32.7889 Z-2.6035
G2 X34.1862 Y28.3724 Z-2.6720 I-10.8167 J7.2111
G1 X-66.2764 Y78.6038 Z-3.0812
G3 X-67.0000 Y78.1565 Z-3.0849 I-0.2236 J-0.4472
G1 X-67.0000 Y-30.2878 Z-3.4799
G3 X-66.6765 Y-30.7556 Z-3.4821 I0.5000 J0.0000
G1 X66.3235 Y-80.9442 Z-4.0000
G3 X67.0000 Y-80.4764 Z-4.0035 I0.1765 J0.4678
G1 X67.0000 Y55.4125 Z-4.4986
G3 X66.0840 Y55.6899 Z-4.5032 I-0.5000 J0.0000
G1 X50.8167 Y32.7889 Z-4.6035
G2 X34.1862 Y28.3724 Z-4.6720 I-10.8167 J7.2111
G1 X-66.2764 Y78.6038 Z-5.0812
G3 X-67.0000 Y78.1565 Z-5.0849 I-0.2236 J-0.4472
G1 X-67.0000 Y-30.2878 Z-5.4799
G3 X-66.6765 Y-30.7556 Z-5.4821 I0.5000 J0.0000
G1 X66.3235 Y-80.9442 Z-6.0000
G3 X67.0000 Y-80.4764 Z-6.0035 I0.1765 J0.4678
G1 X67.0000 Y55.4125 Z-6.4986
G3 X66.0840 Y55.6899 Z-6.5032 I-0.5000 J0.0000
G1 X50.8167 Y32.7889 Z-6.6035
G2 X34.1862 Y28.3724 Z-6.6720 I-10.8167 J7.2111
G1 X-66.2764 Y78.6038 Z-7.0812
G3 X-67.0000 Y78.1565 Z-7.0849 I-0.2236 J-0.4472
G1 X-67.0000 Y-30.2878 Z-7.4799
G3 X-66.6765 Y-30.7556 Z-7.4821 I0.5000 J0.0000
G1 X66.3235 Y-80.9442 Z-8.0000
G3 X67.0000 Y-80.4764 Z-8.0035 I0.1765 J0.4678
G1 X67.0000 Y55.4125 Z-8.4986
G3 X66.0840 Y55.6899 Z-8.5032 I-0.5000 J0.0000
G1 X50.8167 Y32.7889 Z-8.6035
G2 X34.1862 Y28.3724 Z-8.6720 I-10.8167 J7.2111
G1 X-66.2764 Y78.6038 Z-9.0812
G3 X-67.0000 Y78.1565 Z-9.0849 I-0.2236 J-0.4472
G1 X-67.0000 Y-30.2878 Z-9.4799
G3 X-66.6765 Y-30.7556 Z-9.4821 I0.5000 J0.0000
G1 X66.3235 Y-80.9442 Z-10.0000
G3 X67.0000 Y-80.4764 Z-10.0000 I0.1765 J0.4678
G1 X67.0000 Y55.4125 Z-10.0000
G3 X66.0840 Y55.6899 Z-10.0000 I-0.5000 J0.0000
G1 X50.8167 Y32.7889 Z-10.0000
G2 X34.1862 Y28.3724 Z-10.0000 I-10.8167 J7.2111
G1 X-66.2764 Y78.6038 Z-10.0000
G3 X-67.0000 Y78.1565 Z-10.0000 I-0.2236 J-0.4472
G1 X-67.0000 Y-30.2878 Z-10.0000
G3 X-66.6765 Y-30.7556 Z-10.0000 I0.5000 J0.0000
G1 X66.3235 Y-80.9442 Z-10.0000
G0 X66.3235 Y-80.9442 Z1.0000
G0 X33.0000 Y0.0000 Z1.0000
G0 X33.0000 Y0.0000 Z0.0000
G2 X33.0000 Y0.0000 Z-2.0000 I-33.0000 J0.0000
G2 X33.0000 Y0.0000 Z-4.0000 I-33.0000 J0.0000
G2 X33.0000 Y0.0000 Z-6.0000 I-33.0000 J0.0000
G2 X33.0000 Y0.0000 Z-8.0000 I-33.0000 J0.0000
G2 X33.0000 Y0.0000 Z-10.0000 I-33.0000 J0.0000
G2 X33.0000 Y0.0000 Z-10.0000 I-33.0000 J0.0000
G0 X33.0000 Y0.0000 Z1.0000
G0 X70.0000 Y65.3209 Z1.0000
G0 X70.0000 Y65.3209 Z0.0000
G3 X69.0840 Y65.5982 Z-0.0044 I-0.5000 J0.0000
G1 X48.3205 Y34.4530 Z-0.1319
G2 X35.5279 Y31.0557 Z-0.1812 I-8.3205 J5.5470
G1 X-69.2764 Y83.4579 Z-0.5804
G3 X-70.0000 Y83.0106 Z-0.5839 I-0.2236 J-0.4472
G1 X-70.0000 Y-32.3622 Z-0.9769
G3 X-69.6765 Y-32.8300 Z-0.9790 I0.5000 J0.0000
G1 X69.3235 Y-85.2828 Z-1.4852
G3 X70.0000 Y-84.8150 Z-1.4885 I0.1765 J0.4678
G1 X70.0000 Y65.3209 Z-2.0000
G3 X69.0840 Y65.5982 Z-2.0044 I-0.5000 J0.0000
G1 X48.3205 Y34.4530 Z-2.1319
G2 X35.5279 Y31.0557 Z-2.1812 I-8.3205 J5.5470
G1 X-69.2764 Y83.4579 Z-2.5804
G3 X-70.0000 Y83.0106 Z-2.5839 I-0.2236 J-0.4472
G1 X-70.0000 Y-32.3622 Z-2.9769
G3 X-69.6765 Y-32.8300 Z-2.9790 I0.5000 J0.0000
G1 X69.3235 Y-85.2828 Z-3.4852
G3 X70.0000 Y-84.8150 Z-3.4885 I0.1765 J0.4678
G1 X70.0000 Y65.3209 Z-4.0000
G3 X69.0840 Y65.5982 Z-4.0044 I-0.5000 J0.0000
G1 X48.3205 Y34.4530 Z-4.1319
G2 X35.5279 Y31.0557 Z-4.1812 I-8.3205 J5.5470
G1 X-69.2764 Y83.4579 Z-4.5804
G3 X-70.0000 Y83.0106 Z-4.5839 I-0.2236 J-0.4472
G1 X-70.0000 Y-32.3622 Z-4.9769
G3 X-69.6765 Y-32.8300 Z-4.9790 I0.5000 J0.0000
G1 X69.3235 Y-85.2828 Z-5.4852
G3 X70.0000 Y-84.8150 Z-5.4885 I0.1765 J0.4678
G1 X70.0000 Y65.3209 Z-6.0000
G3 X69.0840 Y65.5982 Z-6.0044 I-0.5000 J0.0000
G1 X48.3205 Y34.4530 Z-6.1319
G2 X35.5279 Y31.0557 Z-6.1812 I-8.3205 J5.5470
G1 X-69.2764 Y83.4579 Z-6.5804
G3 X-70.0000 Y83.0106 Z-6.5839 I-0.2236 J-0.4472
G1 X-70.0000 Y-32.3622 Z-6.9769
G3 X-69.6765 Y-32.8300 Z-6.9790 I0.5000 J0.0000
G1 X69.3235 Y-85.2828 Z-7.4852
G3 X70.0000 Y-84.8150 Z-7.4885 I0.1765 J0.4678
G1 X70.0000 Y65.3209 Z-8.0000
G3 X69.0840 Y65.5982 Z-8.0044 I-0.5000 J0.0000
G1 X48.3205 Y34.4530 Z-8.1319
G2 X35.5279 Y31.0557 Z-8.1812 I-8.3205 J5.5470
G1 X-69.2764 Y83.4579 Z-8.5804
G3 X-70.0000 Y83.0106 Z-8.5839 I-0.2236 J-0.4472
G1 X-70.0000 Y-32.3622 Z-8.9769
G3 X-69.6765 Y-32.8300 Z-8.9790 I0.5000 J0.0000
G1 X69.3235 Y-85.2828 Z-9.4852
G3 X70.0000 Y-84.8150 Z-9.4885 I0.1765 J0.4678
G1 X70.0000 Y65.3209 Z-10.0000
G3 X69.0840 Y65.5982 Z-10.0000 I-0.5000 J0.0000
G1 X48.3205 Y34.4530 Z-10.0000
G2 X35.5279 Y31.0557 Z-10.0000 I-8.3205 J5.5470
G1 X-69.2764 Y83.4579 Z-10.0000
G3 X-70.0000 Y83.0106 Z-10.0000 I-0.2236 J-0.4472
G1 X-70.0000 Y-32.3622 Z-10.0000
G3 X-69.6765 Y-32.8300 Z-10.0000 I0.5000 J0.0000
G1 X69.3235 Y-85.2828 Z-10.0000
G3 X70.0000 Y-84.8150 Z-10.0000 I0.1765 J0.4678
G1 X70.0000 Y65.3209 Z-10.0000
G0 X70.0000 Y65.3209 Z1.0000
G0 X30.0000 Y0.0000 Z1.0000
G0 X30.0000 Y0.0000 Z0.0000
G2 X30.0000 Y0.0000 Z-2.0000 I-30.0000 J0.0000
G2 X30.0000 Y0.0000 Z-4.0000 I-30.0000 J0.0000
G2 X30.0000 Y0.0000 Z-6.0000 I-30.0000 J0.0000
G2 X30.0000 Y0.0000 Z-8.0000 I-30.0000 J0.0000
G2 X30.0000 Y0.0000 Z-10.0000 I-30.0000 J0.0000
G2 X30.0000 Y0.0000 Z-10.0000 I-30.0000 J0.0000
G0 X30.0000 Y0.0000 Z1.0000
G0 X-72.2764 Y88.3120 Z1.0000
G0 X-72.2764 Y88.3120 Z0.0000
G3 X-73.0000 Y87.8647 Z-0.0033 I-0.2236 J-0.4472
G1 X-73.0000 Y-34.4366 Z-0.3946
G3 X-72.6765 Y-34.9044 Z-0.3965 I0.5000 J0.0000
G1 X72.3235 Y-89.6214 Z-0.8925
G3 X73.0000 Y-89.1536 Z-0.8955 I0.1765 J0.4678
G1 X73.0000 Y75.2292 Z-1.4216
G3 X72.0840 Y75.5065 Z-1.4256 I-0.5000 J0.0000
G1 X45.8244 Y36.1171 Z-1.5771
G2 X36.8695 Y33.7390 Z-1.6095 I-5.8244 J3.8829
G1 X-72.2764 Y88.3120 Z-2.0000
G3 X-73.0000 Y87.8647 Z-2.0033 I-0.2236 J-0.4472
G1 X-73.0000 Y-34.4366 Z-2.3946
G3 X-72.6765 Y-34.9044 Z-2.3965 I0.5000 J0.0000
G1 X72.3235 Y-89.6214 Z-2.8925
G3 X73.0000 Y-89.1536 Z-2.8955 I0.1765 J0.4678
G1 X73.0000 Y75.2292 Z-3.4216
G3 X72.0840 Y75.5065 Z-3.4256 I-0.5000 J0.0000
G1 X45.8244 Y36.1171 Z-3.5771
G2 X36.8695 Y33.7390 Z-3.6095 I-5.8244 J3.8829
G1 X-72.2764 Y88.3120 Z-4.0000
G3 X-73.0000 Y87.8647 Z-4.0033 I-0.2236 J-0.4472
G1 X-73.0000 Y-34.4366 Z-4.3946
G3 X-72.6765 Y-34.9044 Z-4.3965 I0.5000 J0.0000
G1 X72.3235 Y-89.6214 Z-4.8925
G3 X73.0000 Y-89.1536 Z-4.8955 I0.1765 J0.4678
G1 X73.0000 Y75.2292 Z-5.4216
G3 X72.0840 Y75.5065 Z-5.4256 I-0.5000 J0.0000
G1 X45.8244 Y36.1171 Z-5.5771
G2 X36.8695 Y33.7390 Z-5.6095 I-5.8244 J3.8829
G1 X-72.2764 Y88.3120 Z-6.0000
G3 X-73.0000 Y87.8647 Z-6.0033 I-0.2236 J-0.4472
G1 X-73.0000 Y-34.4366 Z-6.3946
G3 X-72.6765 Y-34.9044 Z-6.3965 I0.5000 J0.0000
G1 X72.3235 Y-89.6214 Z-6.8925
G3 X73.0000 Y-89.1536 Z-6.8955 I0.1765 J0.4678
G1 X73.0000 Y75.2292 Z-7.4216
G3 X72.0840 Y75.5065 Z-7.4256 I-0.5000 J0.0000
G1 X45.8244 Y36.1171 Z-7.5771
G2 X36.8695 Y33.7390 Z-7.6095 I-5.8244 J3.8829
G1 X-72.2764 Y88.3120 Z-8.0000
G3 X-73.0000 Y87.8647 Z-8.0033 I-0.2236 J-0.4472
G1 X-73.0000 Y-34.4366 Z-8.3946
G3 X-72.6765 Y-34.9044 Z-8.3965 I0.5000 J0.0000
G1 X72.3235 Y-89.6214 Z-8.8925
G3 X73.0000 Y-89.1536 Z-8.8955 I0.1765 J0.4678
G1 X73.0000 Y75.2292 Z-9.4216
G3 X72.0840 Y75.5065 Z-9.4256 I-0.5000 J0.0000
G1 X45.8244 Y36.1171 Z-9.5771
G2 X36.8695 Y33.7390 Z-9.6095 I-5.8244 J3.8829
G1 X-72.2764 Y88.3120 Z-10.0000
G3 X-73.0000 Y87.8647 Z-10.0000 I-0.2236 J-0.4472
G1 X-73.0000 Y-34.4366 Z-10.0000
G3 X-72.6765 Y-34.9044 Z-10.0000 I0.5000 J0.0000
G1 X72.3235 Y-89.6214 Z-10.0000
G3 X73.0000 Y-89.1536 Z-10.0000 I0.1765 J0.4678
G1 X73.0000 Y75.2292 Z-10.0000
G3 X72.0840 Y75.5065 Z-10.0000 I-0.5000 J0.0000
G1 X45.8244 Y36.1171 Z-10.0000
G2 X36.8695 Y33.7390 Z-10.0000 I-5.8244 J3.8829
G1 X-72.2764 Y88.3120 Z-10.0000
G0 X-72.2764 Y88.3120 Z1.0000
G0 X27.0000 Y0.0000 Z1.0000
G0 X27.0000 Y0.0000 Z0.0000
G2 X27.0000 Y0.0000 Z-2.0000 I-27.0000 J0.0000
G2 X27.0000 Y0.0000 Z-4.0000 I-27.0000 J0.0000
G2 X27.0000 Y0.0000 Z-6.0000 I-27.0000 J0.0000
G2 X27.0000 Y0.0000 Z-8.0000 I-27.0000 J0.0000
G2 X27.0000 Y0.0000 Z-10.0000 I-27.0000 J0.0000
G2 X27.0000 Y0.0000 Z-10.0000 I-27.0000 J0.0000
G0 X27.0000 Y0.0000 Z1.0000
G0 X-76.0000 Y-36.5110 Z1.0000
G0 X-76.0000 Y-36.5110 Z0.0000
G3 X-75.6765 Y-36.9788 Z-0.0018 I0.5000 J0.0000
G1 X75.3235 Y-93.9599 Z-0.4887
G3 X76.0000 Y-93.4921 Z-0.4916 I0.1765 J0.4678
G1 X76.0000 Y85.1375 Z-1.0304
G3 X75.0840 Y85.4149 Z-1.0342 I-0.5000 J0.0000
G1 X43.3282 Y37.7812 Z-1.2069
G2 X38.2111 Y36.4223 Z-1.2244 I-3.3282 J2.2188
G1 X-75.2764 Y93.1661 Z-1.6071
G3 X-76.0000 Y92.7188 Z-1.6102 I-0.2236 J-0.4472
G1 X-76.0000 Y-36.5110 Z-2.0000
G3 X-75.6765 Y-36.9788 Z-2.0018 I0.5000 J0.0000
G1 X75.3235 Y-93.9599 Z-2.4887
G3 X76.0000 Y-93.4921 Z-2.4916 I0.1765 J0.4678
G1 X76.0000 Y85.1375 Z-3.0304
G3 X75.0840 Y85.4149 Z-3.0342 I-0.5000 J0.0000
G1 X43.3282 Y37.7812 Z-3.2069
G2 X38.2111 Y36.4223 Z-3.2244 I-3.3282 J2.2188
G1 X-75.2764 Y93.1661 Z-3.6071
G3 X-76.0000 Y92.7188 Z-3.6102 I-0.2236 J-0.4472
G1 X-76.0000 Y-36.5110 Z-4.0000
G3 X-75.6765 Y-36.9788 Z-4.0018 I0.5000 J0.0000
G1 X75.3235 Y-93.9599 Z-4.4887
G3 X76.0000 Y-93.4921 Z-4.4916 I0.1765 J0.4678
G1 X76.0000 Y85.1375 Z-5.0304
G3 X75.0840 Y85.4149 Z-5.0342 I-0.5000 J0.0000
G1 X43.3282 Y37.7812 Z-5.2069
G2 X38.2111 Y36.4223 Z-5.2244 I-3.3282 J2.2188
G1 X-75.2764 Y93.1661 Z-5.6071
G3 X-76.0000 Y92.7188 Z-5.6102 I-0.2236 J-0.4472
G1 X-76.0000 Y-36.5110 Z-6.0000
G3 X-75.6765 Y-36.9788 Z-6.0018 I0.5000 J0.0000
G1 X75.3235 Y-93.9599 Z-6.4887
G3 X76.0000 Y-93.4921 Z-6.4916 I0.1765 J0.4678
G1 X76.0000 Y85.1375 Z-7.0304
G3 X75.0840 Y85.4149 Z-7.0342 I-0.5000 J0.0000
G1 X43.3282 Y37.7812 Z-7.2069
G2 X38.2111 Y36.4223 Z-7.2244 I-3.3282 J2.2188
G1 X-75.2764 Y93.1661 Z-7.6071
G3 X-76.0000 Y92.7188 Z-7.6102 I-0.2236 J-0.4472
G1 X-76.0000 Y-36.5110 Z-8.0000
G3 X-75.6765 Y-36.9788 Z-8.0018 I0.5000 J0.0000
G1 X75.3235 Y-93.9599 Z-8.4887
G3 X76.0000 Y-93.4921 Z-8.4916 I0.1765 J0.4678
G1 X76.0000 Y85.1375 Z-9.0304
G3 X75.0840 Y85.4149 Z-9.0342 I-0.5000 J0.0000
G1 X43.3282 Y37.7812 Z-9.2069
G2 X38.2111 Y36.4223 Z-9.2244 I-3.3282 J2.2188
G1 X-75.2764 Y93.1661 Z-9.6071
G3 X-76.0000 Y92.7188 Z-9.6102 I-0.2236 J-0.4472
G1 X-76.0000 Y-36.5110 Z-10.0000
G3 X-75.6765 Y-36.9788 Z-10.0000 I0.5000 J0.0000
G1 X75.3235 Y-93.9599 Z-10.0000
G3 X76.0000 Y-93.4921 Z-10.0000 I0.1765 J0.4678
G1 X76.0000 Y85.1375 Z-10.0000
G3 X75.0840 Y85.4149 Z-10.0000 I-0.5000 J0.0000
G1 X43.3282 Y37.7812 Z-10.0000
G2 X38.2111 Y36.4223 Z-10.0000 I-3.3282 J2.2188
G1 X-75.2764 Y93.1661 Z-10.0000
G3 X-76.0000 Y92.7188 Z-10.0000 I-0.2236 J-0.4472
G1 X-76.0000 Y-36.5110 Z-10.0000
G0 X-76.0000 Y-36.5110 Z1.0000
G0 X24.0000 Y0.0000 Z1.0000
G0 X24.0000 Y0.0000 Z0.0000
G2 X24.0000 Y0.0000 Z-2.0000 I-24.0000 J0.0000
G2 X24.0000 Y0.0000 Z-4.0000 I-24.0000 J0.0000
G2 X24.0000 Y0.0000 Z-6.0000 I-24.0000 J0.0000
G2 X24.0000 Y0.0000 Z-8.0000 I-24.0000 J0.0000
G2 X24.0000 Y0.0000 Z-10.0000 I-24.0000 J0.0000
G2 X24.0000 Y0.0000 Z-10.0000 I-24.0000 J0.0000
G0 X24.0000 Y0.0000 Z1.0000
G0 X-64.0000 Y-83.5000 Z1.0000
G0 X-64.0000 Y-83.5000 Z0.0000
G3 X-63.5000 Y-84.0000 Z-0.0904 I0.5000 J0.0000
G1 X-59.3659 Y-84.0000 Z-0.5662
G3 X-59.0094 Y-83.1494 Z-0.7014 I0.0000 J0.5000
G1 X-63.1435 Y-78.9452 Z-1.3800
G3 X-64.0000 Y-79.2958 Z-1.5161 I-0.3565 J-0.3506
G1 X-64.0000 Y-83.5000 Z-2.0000
G3 X-63.5000 Y-84.0000 Z-2.0904 I0.5000 J0.0000
G1 X-59.3659 Y-84.0000 Z-2.5662
G3 X-59.0094 Y-83.1494 Z-2.7014 I0.0000 J0.5000
G1 X-63.1435 Y-78.9452 Z-3.3800
G3 X-64.0000 Y-79.2958 Z-3.5161 I-0.3565 J-0.3506
G1 X-64.0000 Y-83.5000 Z-4.0000
G3 X-63.5000 Y-84.0000 Z-4.0904 I0.5000 J0.0000
G1 X-59.3659 Y-84.0000 Z-4.5662
G3 X-59.0094 Y-83.1494 Z-4.7014 I0.0000 J0.5000
G1 X-63.1435 Y-78.9452 Z-5.3800
G3 X-64.0000 Y-79.2958 Z-5.5161 I-0.3565 J-0.3506
G1 X-64.0000 Y-83.5000 Z-6.0000
G3 X-63.5000 Y-84.0000 Z-6.0904 I0.5000 J0.0000
G1 X-59.3659 Y-84.0000 Z-6.5662
G3 X-59.0094 Y-83.1494 Z-6.7014 I0.0000 J0.5000
G1 X-63.1435 Y-78.9452 Z-7.3800
G3 X-64.0000 Y-79.2958 Z-7.5161 I-0.3565 J-0.3506
G1 X-64.0000 Y-83.5000 Z-8.0000
G3 X-63.5000 Y-84.0000 Z-8.0904 I0.5000 J0.0000
G1 X-59.3659 Y-84.0000 Z-8.5662
G3 X-59.0094 Y-83.1494 Z-8.7014 I0.0000 J0.5000
G1 X-63.1435 Y-78.9452 Z-9.3800
G3 X-64.0000 Y-79.2958 Z-9.5161 I-0.3565 J-0.3506
G1 X-64.0000 Y-83.5000 Z-10.0000
G3 X-63.5000 Y-84.0000 Z-10.0000 I0.5000 J0.0000
G1 X-59.3659 Y-84.0000 Z-10.0000
G3 X-59.0094 Y-83.1494 Z-10.0000 I0.0000 J0.5000
G1 X-63.1435 Y-78.9452 Z-10.0000
G3 X-64.0000 Y-79.2958 Z-10.0000 I-0.3565 J-0.3506
G1 X-64.0000 Y-83.5000 Z-10.0000
G0 X-64.0000 Y-83.5000 Z1.0000
G0 X-51.8519 Y-86.1494 Z1.0000
G0 X-51.8519 Y-86.1494 Z0.0000
G1 X-66.1435 Y-71.6157 Z-0.7787
G3 X-67.0000 Y-71.9662 Z-0.8239 I-0.3565 J-0.3506
G1 X-67.0000 Y-86.5000 Z-1.3791
G3 X-66.5000 Y-87.0000 Z-1.4092 I0.5000 J0.0000
G1 X-52.2085 Y-87.0000 Z-1.9552
G3 X-51.8519 Y-86.1494 Z-2.0000 I0.0000 J0.5000
G1 X-66.1435 Y-71.6157 Z-2.7787
G3 X-67.0000 Y-71.9662 Z-2.8239 I-0.3565 J-0.3506
G1 X-67.0000 Y-86.5000 Z-3.3791
G3 X-66.5000 Y-87.0000 Z-3.4092 I0.5000 J0.0000
G1 X-52.2085 Y-87.0000 Z-3.9552
G3 X-51.8519 Y-86.1494 Z-4.0000 I0.0000 J0.5000
G1 X-66.1435 Y-71.6157 Z-4.7787
G3 X-67.0000 Y-71.9662 Z-4.8239 I-0.3565 J-0.3506
G1 X-67.0000 Y-86.5000 Z-5.3791
G3 X-66.5000 Y-87.0000 Z-5.4092 I0.5000 J0.0000
G1 X-52.2085 Y-87.0000 Z-5.9552
G3 X-51.8519 Y-86.1494 Z-6.0000 I0.0000 J0.5000
G1 X-66.1435 Y-71.6157 Z-6.7787
G3 X-67.0000 Y-71.9662 Z-6.8239 I-0.3565 J-0.3506
G1 X-67.0000 Y-86.5000 Z-7.3791
G3 X-66.5000 Y-87.0000 Z-7.4092 I0.5000 J0.0000
G1 X-52.2085 Y-87.0000 Z-7.9552
G3 X-51.8519 Y-86.1494 Z-8.0000 I0.0000 J0.5000
G1 X-66.1435 Y-71.6157 Z-8.7787
G3 X-67.0000 Y-71.9662 Z-8.8239 I-0.3565 J-0.3506
G1 X-67.0000 Y-86.5000 Z-9.3791
G3 X-66.5000 Y-87.0000 Z-9.4092 I0.5000 J0.0000
G1 X-52.2085 Y-87.0000 Z-9.9552
G3 X-51.8519 Y-86.1494 Z-10.0000 I0.0000 J0.5000
G1 X-66.1435 Y-71.6157 Z-10.0000
G3 X-67.0000 Y-71.9662 Z-10.0000 I-0.3565 J-0.3506
G1 X-67.0000 Y-86.5000 Z-10.0000
G3 X-66.5000 Y-87.0000 Z-10.0000 I0.5000 J0.0000
G1 X-52.2085 Y-87.0000 Z-10.0000
G3 X-51.8519 Y-86.1494 Z-10.0000 I0.0000 J0.5000
G0 X-51.8519 Y-86.1494 Z1.0000
G0 X-45.0510 Y-90.0000 Z1.0000
G0 X-45.0510 Y-90.0000 Z0.0000
G3 X-44.6945 Y-89.1494 Z-0.0269 I0.0000 J0.5000
G1 X-69.1435 Y-64.2861 Z-0.8255
G3 X-70.0000 Y-64.6366 Z-0.8526 I-0.3565 J-0.3506
G1 X-70.0000 Y-89.5000 Z-1.4221
G3 X-69.5000 Y-90.0000 Z-1.4400 I0.5000 J0.0000
G1 X-45.0510 Y-90.0000 Z-2.0000
G3 X-44.6945 Y-89.1494 Z-2.0269 I0.0000 J0.5000
G1 X-69.1435 Y-64.2861 Z-2.8255
G3 X-70.0000 Y-64.6366 Z-2.8526 I-0.3565 J-0.3506
G1 X-70.0000 Y-89.5000 Z-3.4221
G3 X-69.5000 Y-90.0000 Z-3.4400 I0.5000 J0.0000
G1 X-45.0510 Y-90.0000 Z-4.0000
G3 X-44.6945 Y-89.1494 Z-4.0269 I0.0000 J0.5000
G1 X-69.1435 Y-64.2861 Z-4.8255
G3 X-70.0000 Y-64.6366 Z-4.8526 I-0.3565 J-0.3506
G1 X-70.0000 Y-89.5000 Z-5.4221
G3 X-69.5000 Y-90.0000 Z-5.4400 I0.5000 J0.0000
G1 X-45.0510 Y-90.0000 Z-6.0000
G3 X-44.6945 Y-89.1494 Z-6.0269 I0.0000 J0.5000
G1 X-69.1435 Y-64.2861 Z-6.8255
G3 X-70.0000 Y-64.6366 Z-6.8526 I-0.3565 J-0.3506
G1 X-70.0000 Y-89.5000 Z-7.4221
G3 X-69.5000 Y-90.0000 Z-7.4400 I0.5000 J0.0000
G1 X-45.0510 Y-90.0000 Z-8.0000
G3 X-44.6945 Y-89.1494 Z-8.0269 I0.0000 J0.5000
G1 X-69.1435 Y-64.2861 Z-8.8255
G3 X-70.0000 Y-64.6366 Z-8.8526 I-0.3565 J-0.3506
G1 X-70.0000 Y-89.5000 Z-9.4221
G3 X-69.5000 Y-90.0000 Z-9.4400 I0.5000 J0.0000
G1 X-45.0510 Y-90.0000 Z-10.0000
G3 X-44.6945 Y-89.1494 Z-10.0000 I0.0000 J0.5000
G1 X-69.1435 Y-64.2861 Z-10.0000
G3 X-70.0000 Y-64.6366 Z-10.0000 I-0.3565 J-0.3506
G1 X-70.0000 Y-89.5000 Z-10.0000
G3 X-69.5000 Y-90.0000 Z-10.0000 I0.5000 J0.0000
G1 X-45.0510 Y-90.0000 Z-10.0000
G0 X-45.0510 Y-90.0000 Z1.0000
G0 X-72.1435 Y-56.9565 Z1.0000
G0 X-72.1435 Y-56.9565 Z0.0000
G3 X-73.0000 Y-57.3070 Z-0.0193 I-0.3565 J-0.3506
G1 X-73.0000 Y-92.5000 Z-0.5949
G3 X-72.5000 Y-93.0000 Z-0.6077 I0.5000 J0.0000
G1 X-37.8936 Y-93.0000 Z-1.1736
G3 X-37.5371 Y-92.1494 Z-1.1928 I0.0000 J0.5000
G1 X-72.1435 Y-56.9565 Z-2.0000
G3 X-73.0000 Y-57.3070 Z-2.0193 I-0.3565 J-0.3506
G1 X-73.0000 Y-92.5000 Z-2.5949
G3 X-72.5000 Y-93.0000 Z-2.6077 I0.5000 J0.0000
G1 X-37.8936 Y-93.0000 Z-3.1736
G3 X-37.5371 Y-92.1494 Z-3.1928 I0.0000 J0.5000
G1 X-72.1435 Y-56.9565 Z-4.0000
G3 X-73.0000 Y-57.3070 Z-4.0193 I-0.3565 J-0.3506
G1 X-73.0000 Y-92.5000 Z-4.5949
G3 X-72.5000 Y-93.0000 Z-4.6077 I0.5000 J0.0000
G1 X-37.8936 Y-93.0000 Z-5.1736
G3 X-37.5371 Y-92.1494 Z-5.1928 I0.0000 J0.5000
G1 X-72.1435 Y-56.9565 Z-6.0000
G3 X-73.0000 Y-57.3070 Z-6.0193 I-0.3565 J-0.3506
G1 X-73.0000 Y-92.5000 Z-6.5949
G3 X-72.5000 Y-93.0000 Z-6.6077 I0.5000 J0.0000
G1 X-37.8936 Y-93.0000 Z-7.1736
G3 X-37.5371 Y-92.1494 Z-7.1928 I0.0000 J0.5000
G1 X-72.1435 Y-56.9565 Z-8.0000
G3 X-73.0000 Y-57.3070 Z-8.0193 I-0.3565 J-0.3506
G1 X-73.0000 Y-92.5000 Z-8.5949
G3 X-72.5000 Y-93.0000 Z-8.6077 I0.5000 J0.0000
G1 X-37.8936 Y-93.0000 Z-9.1736
G3 X-37.5371 Y-92.1494 Z-9.1928 I0.0000 J0.5000
G1 X-72.1435 Y-56.9565 Z-10.0000
G3 X-73.0000 Y-57.3070 Z-10.0000 I-0.3565 J-0.3506
G1 X-73.0000 Y-92.5000 Z-10.0000
G3 X-72.5000 Y-93.0000 Z-10.0000 I0.5000 J0.0000
G1 X-37.8936 Y-93.0000 Z-10.0000
G3 X-37.5371 Y-92.1494 Z-10.0000 I0.0000 J0.5000
G1 X-72.1435 Y-56.9565 Z-10.0000
G0 X-72.1435 Y-56.9565 Z1.0000
G0 X-76.0000 Y-49.9774 Z1.0000
G0 X-76.0000 Y-49.9774 Z0.0000
G1 X-76.0000 Y-95.5000 Z-0.5789
G3 X-75.5000 Y-96.0000 Z-0.5889 I0.5000 J0.0000
G1 X-30.7362 Y-96.0000 Z-1.1581
G3 X-30.3796 Y-95.1494 Z-1.1731 I0.0000 J0.5000
G1 X-75.1435 Y-49.6269 Z-1.9850
G3 X-76.0000 Y-49.9774 Z-2.0000 I-0.3565 J-0.3506
G1 X-76.0000 Y-95.5000 Z-2.5789
G3 X-75.5000 Y-96.0000 Z-2.5889 I0.5000 J0.0000
G1 X-30.7362 Y-96.0000 Z-3.1581
G3 X-30.3796 Y-95.1494 Z-3.1731 I0.0000 J0.5000
G1 X-75.1435 Y-49.6269 Z-3.9850
G3 X-76.0000 Y-49.9774 Z-4.0000 I-0.3565 J-0.3506
G1 X-76.0000 Y-95.5000 Z-4.5789
G3 X-75.5000 Y-96.0000 Z-4.5889 I0.5000 J0.0000
G1 X-30.7362 Y-96.0000 Z-5.1581
G3 X-30.3796 Y-95.1494 Z-5.1731 I0.0000 J0.5000
G1 X-75.1435 Y-49.6269 Z-5.9850
G3 X-76.0000 Y-49.9774 Z-6.0000 I-0.3565 J-0.3506
G1 X-76.0000 Y-95.5000 Z-6.5789
G3 X-75.5000 Y-96.0000 Z-6.5889 I0.5000 J0.0000
G1 X-30.7362 Y-96.0000 Z-7.1581
G3 X-30.3796 Y-95.1494 Z-7.1731 I0.0000 J0.5000
G1 X-75.1435 Y-49.6269 Z-7.9850
G3 X-76.0000 Y-49.9774 Z-8.0000 I-0.3565 J-0.3506
G1 X-76.0000 Y-95.5000 Z-8.5789
G3 X-75.5000 Y-96.0000 Z-8.5889 I0.5000 J0.0000
G1 X-30.7362 Y-96.0000 Z-9.1581
G3 X-30.3796 Y-95.1494 Z-9.1731 I0.0000 J0.5000
G1 X-75.1435 Y-49.6269 Z-9.9850
G3 X-76.0000 Y-49.9774 Z-10.0000 I-0.3565 J-0.3506
G1 X-76.0000 Y-95.5000 Z-10.0000
G3 X-75.5000 Y-96.0000 Z-10.0000 I0.5000 J0.0000
G1 X-30.7362 Y-96.0000 Z-10.0000
G3 X-30.3796 Y-95.1494 Z-10.0000 I0.0000 J0.5000
G1 X-75.1435 Y-49.6269 Z-10.0000
G3 X-76.0000 Y-49.9774 Z-10.0000 I-0.3565 J-0.3506
G0 X-76.0000 Y-49.9774 Z1.0000
